STARLINK-36546          
1 67459U 26008Q   26041.16668981 -.02084691  00000+0 -42195-1 0  9998
2 67459  42.9999   1.4867 0001265 271.5059  80.9788 15.49072766  5376
STARLINK-36523          
1 67460U 26008R   26041.16668981 -.02083458  00000+0 -40464-1 0  9997
2 67460  42.9998   1.4497 0001724 259.2201 108.3878 15.50222686  5395
STARLINK-36522          
1 67461U 26008S   26041.00003471  .00065463  00000+0  11146-2 0  9996
2 67461  43.0002   2.7277 0001293 261.9174 130.8756 15.50523595  5347
STARLINK-36504          
1 67462U 26008T   26041.16668981 -.01352750  00000+0 -25259-1 0  9997
2 67462  43.0002   1.2605 0000998 281.4195 163.4466 15.50975151  5392
STARLINK-36505          
1 67463U 26008U   26041.16668981  .00078877  00000+0  13397-2 0  9991
2 67463  43.0000   1.3578 0001363 267.0663 138.1884 15.50517721  5374
STARLINK-36421          
1 67464U 26008V   26041.00003471  .00043651  00000+0  74769-3 0  9995
2 67464  43.0001   2.7188 0001586 263.7131 132.4958 15.50505221  5346
STARLINK-36437          
1 67465U 26008W   26041.16668981 -.00050460  00000+0 -85976-3 0  9996
2 67465  43.0001   1.3286 0001174 273.8070 142.8812 15.50582536  5379
STARLINK-36520          
1 67466U 26008X   26041.16668981 -.02049959  00000+0 -39188-1 0  9992
2 67466  42.9995   1.5181 0001290 268.3615  70.6485 15.50611980  5379
STARLINK-36425          
1 67467U 26008Y   26041.00538779  .00111405  00000+0  18771-2 0  9995
2 67467  42.9994   2.8462 0001332 218.7793 141.2972 15.50591420  5325
STARLINK-36414          
1 67468U 26008Z   26041.16668981 -.00053722  00000+0 -91612-3 0  9997
2 67468  43.0000   1.3286 0001165 269.4099 145.0663 15.50581425  5378
STARLINK-36441          
1 67469U 26008AA  26040.97435553  .00109099  00000+0  18363-2 0  9991
2 67469  42.9991   2.5941 0001818 237.1479 122.9207 15.50630812  5324
STARLINK-36454          
1 67470U 26008AB  26041.16668981 -.00083167  00000+0 -14260-2 0  9999
2 67470  42.9998   1.3852 0001402 267.7429 122.7444 15.50596407  5371
