CCSDS_OMM_VERS = 2.0
CREATION_DATE  = 
ORIGINATOR     = 

OBJECT_NAME    = STARLINK-36546
OBJECT_ID      = 2026-008Q
CENTER_NAME    = EARTH
REF_FRAME      = TEME
TIME_SYSTEM    = UTC
MEAN_ELEMENT_THEORY = SGP/SGP4

EPOCH          = 2026-02-10T04:00:01.999584
MEAN_MOTION    = 15.49072766
ECCENTRICITY   = .0001265
INCLINATION    = 42.9999
RA_OF_ASC_NODE = 1.4867
ARG_OF_PERICENTER = 271.5059
MEAN_ANOMALY   = 80.9788

EPHEMERIS_TYPE = 0
CLASSIFICATION_TYPE = U
NORAD_CAT_ID   = 67459
ELEMENT_SET_NO = 999
REV_AT_EPOCH   = 537
BSTAR          = -.42195E-1
MEAN_MOTION_DOT = -.2084691E-1
MEAN_MOTION_DDOT = 0

CCSDS_OMM_VERS = 2.0
CREATION_DATE  = 
ORIGINATOR     = 

OBJECT_NAME    = STARLINK-36523
OBJECT_ID      = 2026-008R
CENTER_NAME    = EARTH
REF_FRAME      = TEME
TIME_SYSTEM    = UTC
MEAN_ELEMENT_THEORY = SGP/SGP4

EPOCH          = 2026-02-10T04:00:01.999584
MEAN_MOTION    = 15.50222686
ECCENTRICITY   = .0001724
INCLINATION    = 42.9998
RA_OF_ASC_NODE = 1.4497
ARG_OF_PERICENTER = 259.2201
MEAN_ANOMALY   = 108.3878

EPHEMERIS_TYPE = 0
CLASSIFICATION_TYPE = U
NORAD_CAT_ID   = 67460
ELEMENT_SET_NO = 999
REV_AT_EPOCH   = 539
BSTAR          = -.40464E-1
MEAN_MOTION_DOT = -.2083458E-1
MEAN_MOTION_DDOT = 0

CCSDS_OMM_VERS = 2.0
CREATION_DATE  = 
ORIGINATOR     = 

OBJECT_NAME    = STARLINK-36522
OBJECT_ID      = 2026-008S
CENTER_NAME    = EARTH
REF_FRAME      = TEME
TIME_SYSTEM    = UTC
MEAN_ELEMENT_THEORY = SGP/SGP4

EPOCH          = 2026-02-10T00:00:02.998944
MEAN_MOTION    = 15.50523595
ECCENTRICITY   = .0001293
INCLINATION    = 43.0002
RA_OF_ASC_NODE = 2.7277
ARG_OF_PERICENTER = 261.9174
MEAN_ANOMALY   = 130.8756

EPHEMERIS_TYPE = 0
CLASSIFICATION_TYPE = U
NORAD_CAT_ID   = 67461
ELEMENT_SET_NO = 999
REV_AT_EPOCH   = 534
BSTAR          = .11146E-2
MEAN_MOTION_DOT = .65463E-3
MEAN_MOTION_DDOT = 0

CCSDS_OMM_VERS = 2.0
CREATION_DATE  = 
ORIGINATOR     = 

OBJECT_NAME    = STARLINK-36504
OBJECT_ID      = 2026-008T
CENTER_NAME    = EARTH
REF_FRAME      = TEME
TIME_SYSTEM    = UTC
MEAN_ELEMENT_THEORY = SGP/SGP4

EPOCH          = 2026-02-10T04:00:01.999584
MEAN_MOTION    = 15.50975151
ECCENTRICITY   = .0000998
INCLINATION    = 43.0002
RA_OF_ASC_NODE = 1.2605
ARG_OF_PERICENTER = 281.4195
MEAN_ANOMALY   = 163.4466

EPHEMERIS_TYPE = 0
CLASSIFICATION_TYPE = U
NORAD_CAT_ID   = 67462
ELEMENT_SET_NO = 999
REV_AT_EPOCH   = 539
BSTAR          = -.25259E-1
MEAN_MOTION_DOT = -.135275E-1
MEAN_MOTION_DDOT = 0

CCSDS_OMM_VERS = 2.0
CREATION_DATE  = 
ORIGINATOR     = 

OBJECT_NAME    = STARLINK-36505
OBJECT_ID      = 2026-008U
CENTER_NAME    = EARTH
REF_FRAME      = TEME
TIME_SYSTEM    = UTC
MEAN_ELEMENT_THEORY = SGP/SGP4

EPOCH          = 2026-02-10T04:00:01.999584
MEAN_MOTION    = 15.50517721
ECCENTRICITY   = .0001363
INCLINATION    = 43.0000
RA_OF_ASC_NODE = 1.3578
ARG_OF_PERICENTER = 267.0663
MEAN_ANOMALY   = 138.1884

EPHEMERIS_TYPE = 0
CLASSIFICATION_TYPE = U
NORAD_CAT_ID   = 67463
ELEMENT_SET_NO = 999
REV_AT_EPOCH   = 537
BSTAR          = .13397E-2
MEAN_MOTION_DOT = .78877E-3
MEAN_MOTION_DDOT = 0

CCSDS_OMM_VERS = 2.0
CREATION_DATE  = 
ORIGINATOR     = 

OBJECT_NAME    = STARLINK-36421
OBJECT_ID      = 2026-008V
CENTER_NAME    = EARTH
REF_FRAME      = TEME
TIME_SYSTEM    = UTC
MEAN_ELEMENT_THEORY = SGP/SGP4

EPOCH          = 2026-02-10T00:00:02.998944
MEAN_MOTION    = 15.50505221
ECCENTRICITY   = .0001586
INCLINATION    = 43.0001
RA_OF_ASC_NODE = 2.7188
ARG_OF_PERICENTER = 263.7131
MEAN_ANOMALY   = 132.4958

EPHEMERIS_TYPE = 0
CLASSIFICATION_TYPE = U
NORAD_CAT_ID   = 67464
ELEMENT_SET_NO = 999
REV_AT_EPOCH   = 534
BSTAR          = .74769E-3
MEAN_MOTION_DOT = .43651E-3
MEAN_MOTION_DDOT = 0

CCSDS_OMM_VERS = 2.0
CREATION_DATE  = 
ORIGINATOR     = 

OBJECT_NAME    = STARLINK-36437
OBJECT_ID      = 2026-008W
CENTER_NAME    = EARTH
REF_FRAME      = TEME
TIME_SYSTEM    = UTC
MEAN_ELEMENT_THEORY = SGP/SGP4

EPOCH          = 2026-02-10T04:00:01.999584
MEAN_MOTION    = 15.50582536
ECCENTRICITY   = .0001174
INCLINATION    = 43.0001
RA_OF_ASC_NODE = 1.3286
ARG_OF_PERICENTER = 273.8070
MEAN_ANOMALY   = 142.8812

EPHEMERIS_TYPE = 0
CLASSIFICATION_TYPE = U
NORAD_CAT_ID   = 67465
ELEMENT_SET_NO = 999
REV_AT_EPOCH   = 537
BSTAR          = -.85976E-3
MEAN_MOTION_DOT = -.5046E-3
MEAN_MOTION_DDOT = 0

CCSDS_OMM_VERS = 2.0
CREATION_DATE  = 
ORIGINATOR     = 

OBJECT_NAME    = STARLINK-36520
OBJECT_ID      = 2026-008X
CENTER_NAME    = EARTH
REF_FRAME      = TEME
TIME_SYSTEM    = UTC
MEAN_ELEMENT_THEORY = SGP/SGP4

EPOCH          = 2026-02-10T04:00:01.999584
MEAN_MOTION    = 15.50611980
ECCENTRICITY   = .000129
INCLINATION    = 42.9995
RA_OF_ASC_NODE = 1.5181
ARG_OF_PERICENTER = 268.3615
MEAN_ANOMALY   = 70.6485

EPHEMERIS_TYPE = 0
CLASSIFICATION_TYPE = U
NORAD_CAT_ID   = 67466
ELEMENT_SET_NO = 999
REV_AT_EPOCH   = 537
BSTAR          = -.39188E-1
MEAN_MOTION_DOT = -.2049959E-1
MEAN_MOTION_DDOT = 0

CCSDS_OMM_VERS = 2.0
CREATION_DATE  = 
ORIGINATOR     = 

OBJECT_NAME    = STARLINK-36425
OBJECT_ID      = 2026-008Y
CENTER_NAME    = EARTH
REF_FRAME      = TEME
TIME_SYSTEM    = UTC
MEAN_ELEMENT_THEORY = SGP/SGP4

EPOCH          = 2026-02-10T00:07:45.505056
MEAN_MOTION    = 15.50591420
ECCENTRICITY   = .0001332
INCLINATION    = 42.9994
RA_OF_ASC_NODE = 2.8462
ARG_OF_PERICENTER = 218.7793
MEAN_ANOMALY   = 141.2972

EPHEMERIS_TYPE = 0
CLASSIFICATION_TYPE = U
NORAD_CAT_ID   = 67467
ELEMENT_SET_NO = 999
REV_AT_EPOCH   = 532
BSTAR          = .18771E-2
MEAN_MOTION_DOT = .111405E-2
MEAN_MOTION_DDOT = 0

CCSDS_OMM_VERS = 2.0
CREATION_DATE  = 
ORIGINATOR     = 

OBJECT_NAME    = STARLINK-36414
OBJECT_ID      = 2026-008Z
CENTER_NAME    = EARTH
REF_FRAME      = TEME
TIME_SYSTEM    = UTC
MEAN_ELEMENT_THEORY = SGP/SGP4

EPOCH          = 2026-02-10T04:00:01.999584
MEAN_MOTION    = 15.50581425
ECCENTRICITY   = .0001165
INCLINATION    = 43.0000
RA_OF_ASC_NODE = 1.3286
ARG_OF_PERICENTER = 269.4099
MEAN_ANOMALY   = 145.0663

EPHEMERIS_TYPE = 0
CLASSIFICATION_TYPE = U
NORAD_CAT_ID   = 67468
ELEMENT_SET_NO = 999
REV_AT_EPOCH   = 537
BSTAR          = -.91612E-3
MEAN_MOTION_DOT = -.53722E-3
MEAN_MOTION_DDOT = 0

CCSDS_OMM_VERS = 2.0
CREATION_DATE  = 
ORIGINATOR     = 

OBJECT_NAME    = STARLINK-36441
OBJECT_ID      = 2026-008AA
CENTER_NAME    = EARTH
REF_FRAME      = TEME
TIME_SYSTEM    = UTC
MEAN_ELEMENT_THEORY = SGP/SGP4

EPOCH          = 2026-02-09T23:23:04.317792
MEAN_MOTION    = 15.50630812
ECCENTRICITY   = .0001818
INCLINATION    = 42.9991
RA_OF_ASC_NODE = 2.5941
ARG_OF_PERICENTER = 237.1479
MEAN_ANOMALY   = 122.9207

EPHEMERIS_TYPE = 0
CLASSIFICATION_TYPE = U
NORAD_CAT_ID   = 67469
ELEMENT_SET_NO = 999
REV_AT_EPOCH   = 532
BSTAR          = .18363E-2
MEAN_MOTION_DOT = .109099E-2
MEAN_MOTION_DDOT = 0

CCSDS_OMM_VERS = 2.0
CREATION_DATE  = 
ORIGINATOR     = 

OBJECT_NAME    = STARLINK-36454
OBJECT_ID      = 2026-008AB
CENTER_NAME    = EARTH
REF_FRAME      = TEME
TIME_SYSTEM    = UTC
MEAN_ELEMENT_THEORY = SGP/SGP4

EPOCH          = 2026-02-10T04:00:01.999584
MEAN_MOTION    = 15.50596407
ECCENTRICITY   = .0001402
INCLINATION    = 42.9998
RA_OF_ASC_NODE = 1.3852
ARG_OF_PERICENTER = 267.7429
MEAN_ANOMALY   = 122.7444

EPHEMERIS_TYPE = 0
CLASSIFICATION_TYPE = U
NORAD_CAT_ID   = 67470
ELEMENT_SET_NO = 999
REV_AT_EPOCH   = 537
BSTAR          = -.1426E-2
MEAN_MOTION_DOT = -.83167E-3
MEAN_MOTION_DDOT = 0

